LEMUR-1                 
1 40044U 14033AL  26204.20065020  .00001391  00000+0  16494-3 0  9992
2 40044  97.7918 353.2169 0047161 321.2550  38.5285 14.85354380650813
LEMUR-2-GREENBERG       
1 42837U 17042N   26203.94901048  .00019439  00000+0  62365-3 0  9996
2 42837  97.3839  24.4400 0007639 227.5103 132.5494 15.32339048493860
LEMUR-2-ANDIS           
1 42838U 17042P   26203.95782004  .00025435  00000+0  72181-3 0  9997
2 42838  97.3692  24.7629 0007627 226.5024 133.5586 15.36171560493941
LEMUR-2-MONSON          
1 42839U 17042Q   26204.10184621  .00017282  00000+0  61671-3 0  9990
2 42839  97.4103  24.5078 0005861 213.0819 147.0055 15.28924414493651
LEMUR-2-FURIAUS         
1 42840U 17042R   26203.96709052  .00020637  00000+0  68330-3 0  9993
2 42840  97.3787  22.3327 0005636 296.2967  63.7695 15.31323478493684
LEMUR-2-PETERG          
1 42841U 17042S   26203.96326377  .00024755  00000+0  72386-3 0  9990
2 42841  97.4004  29.0909 0003918 189.1114 171.0059 15.35258064493929
LEMUR-2-DEMBITZ         
1 42842U 17042T   26204.31370239  .00017413  00000+0  57765-3 0  9994
2 42842  97.3838  25.7267 0005338 238.2152 121.8570 15.31299422493874
LEMUR-2-ZACHARY         
1 42845U 17042W   26204.04218123  .00060078  00000+0  94824-3 0  9992
2 42845  97.3580  36.5204 0003078 214.2552 145.8503 15.53318099494766
LEMUR-2-AMANDA-SVANTE   
1 48269U 21034B   26204.20252856  .00036673  00000+0  10330-2 0  9996
2 48269  97.5742 283.4904 0004786 125.9635 234.2053 15.36348536286583
LEMUR-2-SPECIAL-K       
1 48273U 21034F   26204.20531502  .00347401  00000+0  19481-2 0  9999
2 48273  97.5611 294.0251 0005994 210.7162 149.3754 15.78328874287344
LEMUR-2-EMBRIONOVIS     
1 56970U 23084AQ  26203.40045334  .00015030  00000+0  39880-3 0  9999
2 56970  97.6329 348.9822 0008890 180.3852 179.7387 15.38367572173092
LEMUR-2-DEVERILL-M-T    
1 57391U 23100F   26204.08658719  .00030709  00000+0  73544-3 0  9993
2 57391  99.4450 253.2624 0004957 264.4607  95.6068 15.41393755166770
LEMUR-2-BASS            
1 58259U 23174D   26204.18685520  .00018695  00000+0  40859-3 0  9992
2 58259  97.3838 289.4295 0007084  53.6209 306.5692 15.44198508150914
LEMUR-2-JK0903EM1407    
1 58336U 23174CJ  26204.17208384  .00029024  00000+0  45944-3 0  9994
2 58336  97.3918 295.7020 0002930 358.1516   1.9726 15.53393550151317
LEMUR-2-MJR092620       
1 58340U 23174CN  26204.15734928  .00020250  00000+0  41510-3 0  9992
2 58340  97.3967 294.8801 0004513 359.8733   0.2514 15.46086523151207
LEMUR-2-NIMBUS2000      
1 58899U 24022A   26204.12450729  .00024329  00000+0  58318-3 0  9990
2 58899  97.4083  54.6075 0007882   0.5027 359.6227 15.41371925137809
