{"fetched_at":"2026-07-23T17:55:13.276Z","source":"https://celestrak.org/NORAD/elements/gp.php?GROUP=spire&FORMAT=JSON","constellation":"spire","records":[{"OBJECT_NAME":"LEMUR-1","OBJECT_ID":"2014-033AL","EPOCH":"2026-07-23T04:48:56.177280","CLASSIFICATION_TYPE":"U","MEAN_MOTION":14.8535438,"ECCENTRICITY":0.00471617,"INCLINATION":97.7918,"RA_OF_ASC_NODE":353.2169,"ARG_OF_PERICENTER":321.255,"MEAN_ANOMALY":38.5285,"EPHEMERIS_TYPE":0,"NORAD_CAT_ID":40044,"ELEMENT_SET_NO":999,"REV_AT_EPOCH":65081,"BSTAR":0.00016494452,"MEAN_MOTION_DOT":0.00001391,"MEAN_MOTION_DDOT":0},{"OBJECT_NAME":"LEMUR-2-GREENBERG","OBJECT_ID":"2017-042N","EPOCH":"2026-07-22T22:46:34.505472","CLASSIFICATION_TYPE":"U","MEAN_MOTION":15.32339048,"ECCENTRICITY":0.00076392,"INCLINATION":97.3839,"RA_OF_ASC_NODE":24.44,"ARG_OF_PERICENTER":227.5103,"MEAN_ANOMALY":132.5494,"EPHEMERIS_TYPE":0,"NORAD_CAT_ID":42837,"ELEMENT_SET_NO":999,"REV_AT_EPOCH":49386,"BSTAR":0.00062365481,"MEAN_MOTION_DOT":0.00019439,"MEAN_MOTION_DDOT":0},{"OBJECT_NAME":"LEMUR-2-ANDIS","OBJECT_ID":"2017-042P","EPOCH":"2026-07-22T22:59:15.651456","CLASSIFICATION_TYPE":"U","MEAN_MOTION":15.3617156,"ECCENTRICITY":0.00076276,"INCLINATION":97.3692,"RA_OF_ASC_NODE":24.7629,"ARG_OF_PERICENTER":226.5024,"MEAN_ANOMALY":133.5586,"EPHEMERIS_TYPE":0,"NORAD_CAT_ID":42838,"ELEMENT_SET_NO":999,"REV_AT_EPOCH":49394,"BSTAR":0.00072180988,"MEAN_MOTION_DOT":0.00025435,"MEAN_MOTION_DDOT":0},{"OBJECT_NAME":"LEMUR-2-MONSON","OBJECT_ID":"2017-042Q","EPOCH":"2026-07-23T02:26:39.512544","CLASSIFICATION_TYPE":"U","MEAN_MOTION":15.28924414,"ECCENTRICITY":0.00058613,"INCLINATION":97.4103,"RA_OF_ASC_NODE":24.5078,"ARG_OF_PERICENTER":213.0819,"MEAN_ANOMALY":147.0055,"EPHEMERIS_TYPE":0,"NORAD_CAT_ID":42839,"ELEMENT_SET_NO":999,"REV_AT_EPOCH":49365,"BSTAR":0.00061671021,"MEAN_MOTION_DOT":0.00017282,"MEAN_MOTION_DDOT":0},{"OBJECT_NAME":"LEMUR-2-FURIAUS","OBJECT_ID":"2017-042R","EPOCH":"2026-07-22T23:12:36.620928","CLASSIFICATION_TYPE":"U","MEAN_MOTION":15.31323478,"ECCENTRICITY":0.00056366,"INCLINATION":97.3787,"RA_OF_ASC_NODE":22.3327,"ARG_OF_PERICENTER":296.2967,"MEAN_ANOMALY":63.7695,"EPHEMERIS_TYPE":0,"NORAD_CAT_ID":42840,"ELEMENT_SET_NO":999,"REV_AT_EPOCH":49368,"BSTAR":0.00068329855,"MEAN_MOTION_DOT":0.00020637,"MEAN_MOTION_DDOT":0},{"OBJECT_NAME":"LEMUR-2-PETERG","OBJECT_ID":"2017-042S","EPOCH":"2026-07-22T23:07:05.989728","CLASSIFICATION_TYPE":"U","MEAN_MOTION":15.35258064,"ECCENTRICITY":0.00039187,"INCLINATION":97.4004,"RA_OF_ASC_NODE":29.0909,"ARG_OF_PERICENTER":189.1114,"MEAN_ANOMALY":171.0059,"EPHEMERIS_TYPE":0,"NORAD_CAT_ID":42841,"ELEMENT_SET_NO":999,"REV_AT_EPOCH":49392,"BSTAR":0.00072385962,"MEAN_MOTION_DOT":0.00024755,"MEAN_MOTION_DDOT":0},{"OBJECT_NAME":"LEMUR-2-DEMBITZ","OBJECT_ID":"2017-042T","EPOCH":"2026-07-23T07:31:43.886496","CLASSIFICATION_TYPE":"U","MEAN_MOTION":15.31299422,"ECCENTRICITY":0.00053381,"INCLINATION":97.3838,"RA_OF_ASC_NODE":25.7267,"ARG_OF_PERICENTER":238.2152,"MEAN_ANOMALY":121.857,"EPHEMERIS_TYPE":0,"NORAD_CAT_ID":42842,"ELEMENT_SET_NO":999,"REV_AT_EPOCH":49387,"BSTAR":0.00057764623,"MEAN_MOTION_DOT":0.00017413,"MEAN_MOTION_DDOT":0},{"OBJECT_NAME":"LEMUR-2-ZACHARY","OBJECT_ID":"2017-042W","EPOCH":"2026-07-23T01:00:44.458272","CLASSIFICATION_TYPE":"U","MEAN_MOTION":15.53318099,"ECCENTRICITY":0.00030784,"INCLINATION":97.358,"RA_OF_ASC_NODE":36.5204,"ARG_OF_PERICENTER":214.2552,"MEAN_ANOMALY":145.8503,"EPHEMERIS_TYPE":0,"NORAD_CAT_ID":42845,"ELEMENT_SET_NO":999,"REV_AT_EPOCH":49476,"BSTAR":0.00094823677,"MEAN_MOTION_DOT":0.00060078,"MEAN_MOTION_DDOT":0},{"OBJECT_NAME":"LEMUR-2-AMANDA-SVANTE","OBJECT_ID":"2021-034B","EPOCH":"2026-07-23T04:51:38.467584","CLASSIFICATION_TYPE":"U","MEAN_MOTION":15.36348536,"ECCENTRICITY":0.00047863,"INCLINATION":97.5742,"RA_OF_ASC_NODE":283.4904,"ARG_OF_PERICENTER":125.9635,"MEAN_ANOMALY":234.2053,"EPHEMERIS_TYPE":0,"NORAD_CAT_ID":48269,"ELEMENT_SET_NO":999,"REV_AT_EPOCH":28658,"BSTAR":0.0010329534,"MEAN_MOTION_DOT":0.00036673,"MEAN_MOTION_DDOT":0},{"OBJECT_NAME":"LEMUR-2-SPECIAL-K","OBJECT_ID":"2021-034F","EPOCH":"2026-07-23T04:55:39.217728","CLASSIFICATION_TYPE":"U","MEAN_MOTION":15.78328874,"ECCENTRICITY":0.00059947,"INCLINATION":97.5611,"RA_OF_ASC_NODE":294.0251,"ARG_OF_PERICENTER":210.7162,"MEAN_ANOMALY":149.3754,"EPHEMERIS_TYPE":0,"NORAD_CAT_ID":48273,"ELEMENT_SET_NO":999,"REV_AT_EPOCH":28734,"BSTAR":0.0019480771,"MEAN_MOTION_DOT":0.00347401,"MEAN_MOTION_DDOT":0},{"OBJECT_NAME":"LEMUR-2-EMBRIONOVIS","OBJECT_ID":"2023-084AQ","EPOCH":"2026-07-22T09:36:39.168576","CLASSIFICATION_TYPE":"U","MEAN_MOTION":15.38367572,"ECCENTRICITY":0.00088903,"INCLINATION":97.6329,"RA_OF_ASC_NODE":348.9822,"ARG_OF_PERICENTER":180.3852,"MEAN_ANOMALY":179.7387,"EPHEMERIS_TYPE":0,"NORAD_CAT_ID":56970,"ELEMENT_SET_NO":999,"REV_AT_EPOCH":17309,"BSTAR":0.00039879839,"MEAN_MOTION_DOT":0.0001503,"MEAN_MOTION_DDOT":0},{"OBJECT_NAME":"LEMUR-2-DEVERILL-M-T","OBJECT_ID":"2023-100F","EPOCH":"2026-07-23T02:04:41.133216","CLASSIFICATION_TYPE":"U","MEAN_MOTION":15.41393755,"ECCENTRICITY":0.00049572,"INCLINATION":99.445,"RA_OF_ASC_NODE":253.2624,"ARG_OF_PERICENTER":264.4607,"MEAN_ANOMALY":95.6068,"EPHEMERIS_TYPE":0,"NORAD_CAT_ID":57391,"ELEMENT_SET_NO":999,"REV_AT_EPOCH":16677,"BSTAR":0.00073544425,"MEAN_MOTION_DOT":0.00030709,"MEAN_MOTION_DDOT":0},{"OBJECT_NAME":"LEMUR-2-BASS","OBJECT_ID":"2023-174D","EPOCH":"2026-07-23T04:29:04.289280","CLASSIFICATION_TYPE":"U","MEAN_MOTION":15.44198508,"ECCENTRICITY":0.00070848,"INCLINATION":97.3838,"RA_OF_ASC_NODE":289.4295,"ARG_OF_PERICENTER":53.6209,"MEAN_ANOMALY":306.5692,"EPHEMERIS_TYPE":0,"NORAD_CAT_ID":58259,"ELEMENT_SET_NO":999,"REV_AT_EPOCH":15091,"BSTAR":0.00040858882,"MEAN_MOTION_DOT":0.00018695,"MEAN_MOTION_DDOT":0},{"OBJECT_NAME":"LEMUR-2-JK0903EM1407","OBJECT_ID":"2023-174CJ","EPOCH":"2026-07-23T04:07:48.043776","CLASSIFICATION_TYPE":"U","MEAN_MOTION":15.5339355,"ECCENTRICITY":0.00029303,"INCLINATION":97.3918,"RA_OF_ASC_NODE":295.702,"ARG_OF_PERICENTER":358.1516,"MEAN_ANOMALY":1.9726,"EPHEMERIS_TYPE":0,"NORAD_CAT_ID":58336,"ELEMENT_SET_NO":999,"REV_AT_EPOCH":15131,"BSTAR":0.00045943992,"MEAN_MOTION_DOT":0.00029024,"MEAN_MOTION_DDOT":0},{"OBJECT_NAME":"LEMUR-2-MJR092620","OBJECT_ID":"2023-174CN","EPOCH":"2026-07-23T03:46:34.977792","CLASSIFICATION_TYPE":"U","MEAN_MOTION":15.46086523,"ECCENTRICITY":0.00045133,"INCLINATION":97.3967,"RA_OF_ASC_NODE":294.8801,"ARG_OF_PERICENTER":359.8733,"MEAN_ANOMALY":0.2514,"EPHEMERIS_TYPE":0,"NORAD_CAT_ID":58340,"ELEMENT_SET_NO":999,"REV_AT_EPOCH":15120,"BSTAR":0.00041510397,"MEAN_MOTION_DOT":0.0002025,"MEAN_MOTION_DDOT":0},{"OBJECT_NAME":"LEMUR-2-NIMBUS2000","OBJECT_ID":"2024-022A","EPOCH":"2026-07-23T02:59:17.429856","CLASSIFICATION_TYPE":"U","MEAN_MOTION":15.41371925,"ECCENTRICITY":0.00078827,"INCLINATION":97.4083,"RA_OF_ASC_NODE":54.6075,"ARG_OF_PERICENTER":0.5027,"MEAN_ANOMALY":359.6227,"EPHEMERIS_TYPE":0,"NORAD_CAT_ID":58899,"ELEMENT_SET_NO":999,"REV_AT_EPOCH":13780,"BSTAR":0.00058317751,"MEAN_MOTION_DOT":0.00024329,"MEAN_MOTION_DDOT":0}]}
